{
  "norad_id": 66201,
  "name": "STARLINK-35543",
  "history": [
    {
      "epoch": "2026-03-28T21:14:55.536000",
      "apogee_km": 475.92704109170336,
      "perigee_km": 474.43438849342147,
      "latitude_deg": -22.660334883677788,
      "longitude_deg": 165.0950400000438,
      "semi_major_axis_km": 6853.317714792562,
      "eccentricity": 0.0001089,
      "inclination_deg": 53.1574,
      "raan_deg": 156.0189,
      "arg_perigee_deg": 57.4241,
      "mean_anomaly_deg": 302.6865,
      "mean_motion_rev_day": 15.30211506
    }
  ]
}