{"fetched_at":"2026-03-30T06:02:59Z","count":15439,"tles":[{"name":"STARLINK-35543","line1":"1 66201U 25243AA  26087.88536500  .00017472  00000+0  60042-3 0  9994","line2":"2 66201  53.1574 156.0189 0001089  57.4241 302.6865 15.30211506 23596","category":"Starlink"}]}